CTC2_L_00144001-01
1 25737U 22702UU  26037.47791667  .00000000  00000+0  00000-0 0  9991
2 25737  70.0000   0.0000 0000000   0.0000   0.0000 15.08755970    11
CTC2_L_00144001-02
1 25738U 23545NT  26037.47791667  .00000000  00000+0  00000-0 0  9998
2 25738  70.0000   0.0000 0000000   0.0000  90.0000 15.08755970    11
CTC2_L_00144001-03
1 25739U 22028QV  26037.47791667  .00000000  00000+0  00000-0 0  9994
2 25739  70.0000   0.0000 0000000   0.0000 180.0000 15.08755970    12
CTC2_L_00144001-04
1 25740U 25728YU  26037.47791667  .00000000  00000+0  00000-0 0  9996
2 25740  70.0000   0.0000 0000000   0.0000 270.0000 15.08755970    14
CTC2_L_00144002-01
1 25741U 26820RI  26037.47791667  .00000000  00000+0  00000-0 0  9991
2 25741  70.0000  12.0000 0000000   0.0000  12.0000 15.08755970    12
CTC2_L_00144002-02
1 25742U 25178JL  26037.47791667  .00000000  00000+0  00000-0 0  9997
2 25742  70.0000  12.0000 0000000   0.0000 102.0000 15.08755970    13
CTC2_L_00144002-03
1 25743U 26391ES  26037.47791667  .00000000  00000+0  00000-0 0  9996
2 25743  70.0000  12.0000 0000000   0.0000 192.0000 15.08755970    13
CTC2_L_00144002-04
1 25744U 23110FR  26037.47791667  .00000000  00000+0  00000-0 0  9993
2 25744  70.0000  12.0000 0000000   0.0000 282.0000 15.08755970    14
CTC2_L_00144003-01
1 25745U 23383PT  26037.47791667  .00000000  00000+0  00000-0 0  9996
2 25745  70.0000  24.0000 0000000   0.0000  24.0000 15.08755970    12
CTC2_L_00144003-02
1 25746U 23362XZ  26037.47791667  .00000000  00000+0  00000-0 0  9994
2 25746  70.0000  24.0000 0000000   0.0000 114.0000 15.08755970    13
CTC2_L_00144003-03
1 25747U 24060GE  26037.47791667  .00000000  00000+0  00000-0 0  9991
2 25747  70.0000  24.0000 0000000   0.0000 204.0000 15.08755970    14
CTC2_L_00144003-04
1 25748U 23307TA  26037.47791667  .00000000  00000+0  00000-0 0  9995
2 25748  70.0000  24.0000 0000000   0.0000 294.0000 15.08755970    14
CTC2_L_00144004-01
1 25749U 24298OJ  26037.47791667  .00000000  00000+0  00000-0 0  9996
2 25749  70.0000  36.0000 0000000   0.0000  36.0000 15.08755970    12
CTC2_L_00144004-02
1 25750U 23033TM  26037.47791667  .00000000  00000+0  00000-0 0  9994
2 25750  70.0000  36.0000 0000000   0.0000 126.0000 15.08755970    14
CTC2_L_00144004-03
1 25751U 23271VM  26037.47791667  .00000000  00000+0  00000-0 0  9999
2 25751  70.0000  36.0000 0000000   0.0000 216.0000 15.08755970    15
CTC2_L_00144004-04
1 25752U 22579TX  26037.47791667  .00000000  00000+0  00000-0 0  9990
2 25752  70.0000  36.0000 0000000   0.0000 306.0000 15.08755970    16
CTC2_L_00144005-01
1 25753U 24648LP  26037.47791667  .00000000  00000+0  00000-0 0  9990
2 25753  70.0000  48.0000 0000000   0.0000  48.0000 15.08755970    13
CTC2_L_00144005-02
1 25754U 24922AT  26037.47791667  .00000000  00000+0  00000-0 0  9996
2 25754  70.0000  48.0000 0000000   0.0000 138.0000 15.08755970    14
CTC2_L_00144005-03
1 25755U 22128VZ  26037.47791667  .00000000  00000+0  00000-0 0  9993
2 25755  70.0000  48.0000 0000000   0.0000 228.0000 15.08755970    15
CTC2_L_00144005-04
1 25756U 25838NZ  26037.47791667  .00000000  00000+0  00000-0 0  9995
2 25756  70.0000  48.0000 0000000   0.0000 318.0000 15.08755970    16
CTC2_L_00144006-01
1 25757U 24432YO  26037.47791667  .00000000  00000+0  00000-0 0  9995
2 25757  70.0000  60.0000 0000000   0.0000  60.0000 15.08755970    15
CTC2_L_00144006-02
1 25758U 24904SC  26037.47791667  .00000000  00000+0  00000-0 0  9990
2 25758  70.0000  60.0000 0000000   0.0000 150.0000 15.08755970    16
CTC2_L_00144006-03
1 25759U 26509AU  26037.47791667  .00000000  00000+0  00000-0 0  9994
2 25759  70.0000  60.0000 0000000   0.0000 240.0000 15.08755970    17
CTC2_L_00144006-04
1 25760U 23403QZ  26037.47791667  .00000000  00000+0  00000-0 0  9996
2 25760  70.0000  60.0000 0000000   0.0000 330.0000 15.08755970    19
CTC2_L_00144007-01
1 25761U 22313RC  26037.47791667  .00000000  00000+0  00000-0 0  9996
2 25761  70.0000  72.0000 0000000   0.0000  72.0000 15.08755970    16
CTC2_L_00144007-02
1 25762U 25799EX  26037.47791667  .00000000  00000+0  00000-0 0  9998
2 25762  70.0000  72.0000 0000000   0.0000 162.0000 15.08755970    17
CTC2_L_00144007-03
1 25763U 24966ZL  26037.47791667  .00000000  00000+0  00000-0 0  9994
2 25763  70.0000  72.0000 0000000   0.0000 252.0000 15.08755970    18
CTC2_L_00144007-04
1 25764U 22672HH  26037.47791667  .00000000  00000+0  00000-0 0  9997
2 25764  70.0000  72.0000 0000000   0.0000 342.0000 15.08755970    19
CTC2_L_00144008-01
1 25765U 24162HX  26037.47791667  .00000000  00000+0  00000-0 0  9994
2 25765  70.0000  84.0000 0000000   0.0000  84.0000 15.08755970    16
CTC2_L_00144008-02
1 25766U 22592ZR  26037.47791667  .00000000  00000+0  00000-0 0  9990
2 25766  70.0000  84.0000 0000000   0.0000 174.0000 15.08755970    17
CTC2_L_00144008-03
1 25767U 25934UG  26037.47791667  .00000000  00000+0  00000-0 0  9994
2 25767  70.0000  84.0000 0000000   0.0000 264.0000 15.08755970    18
CTC2_L_00144008-04
1 25768U 22079DS  26037.47791667  .00000000  00000+0  00000-0 0  9992
2 25768  70.0000  84.0000 0000000   0.0000 354.0000 15.08755970    19
CTC2_L_00144009-01
1 25769U 25255SM  26037.47791667  .00000000  00000+0  00000-0 0  9992
2 25769  70.0000  96.0000 0000000   0.0000  96.0000 15.08755970    16
CTC2_L_00144009-02
1 25770U 26336IB  26037.47791667  .00000000  00000+0  00000-0 0  9995
2 25770  70.0000  96.0000 0000000   0.0000 186.0000 15.08755970    18
CTC2_L_00144009-03
1 25771U 24336GN  26037.47791667  .00000000  00000+0  00000-0 0  9994
2 25771  70.0000  96.0000 0000000   0.0000 276.0000 15.08755970    19
CTC2_L_00144009-04
1 25772U 24615IX  26037.47791667  .00000000  00000+0  00000-0 0  9995
2 25772  70.0000  96.0000 0000000   0.0000   6.0000 15.08755970    11
CTC2_L_00144010-01
1 25773U 26414CP  26037.47791667  .00000000  00000+0  00000-0 0  9995
2 25773  70.0000 108.0000 0000000   0.0000 108.0000 15.08755970    19
CTC2_L_00144010-02
1 25774U 24522NS  26037.47791667  .00000000  00000+0  00000-0 0  9994
2 25774  70.0000 108.0000 0000000   0.0000 198.0000 15.08755970    19
CTC2_L_00144010-03
1 25775U 23357CY  26037.47791667  .00000000  00000+0  00000-0 0  9990
2 25775  70.0000 108.0000 0000000   0.0000 288.0000 15.08755970    10
CTC2_L_00144010-04
1 25776U 24797GM  26037.47791667  .00000000  00000+0  00000-0 0  9990
2 25776  70.0000 108.0000 0000000   0.0000  18.0000 15.08755970    12
CTC2_L_00144011-01
1 25777U 22915CN  26037.47791667  .00000000  00000+0  00000-0 0  9991
2 25777  70.0000 120.0000 0000000   0.0000 120.0000 15.08755970    11
CTC2_L_00144011-02
1 25778U 26234O   26037.47791667  .00000000  00000+0  00000-0 0  9990
2 25778  70.0000 120.0000 0000000   0.0000 210.0000 15.08755970    12
CTC2_L_00144011-03
1 25779U 23544VK  26037.47791667  .00000000  00000+0  00000-0 0  9992
2 25779  70.0000 120.0000 0000000   0.0000 300.0000 15.08755970    13
CTC2_L_00144011-04
1 25780U 25356IM  26037.47791667  .00000000  00000+0  00000-0 0  9997
2 25780  70.0000 120.0000 0000000   0.0000  30.0000 15.08755970    15
CTC2_L_00144012-01
1 25781U 26061BW  26037.47791667  .00000000  00000+0  00000-0 0  9992
2 25781  70.0000 132.0000 0000000   0.0000 132.0000 15.08755970    12
CTC2_L_00144012-02
1 25782U 22801LC  26037.47791667  .00000000  00000+0  00000-0 0  9991
2 25782  70.0000 132.0000 0000000   0.0000 222.0000 15.08755970    13
CTC2_L_00144012-03
1 25783U 26724XS  26037.47791667  .00000000  00000+0  00000-0 0  9990
2 25783  70.0000 132.0000 0000000   0.0000 312.0000 15.08755970    14
CTC2_L_00144012-04
1 25784U 25326KS  26037.47791667  .00000000  00000+0  00000-0 0  9998
2 25784  70.0000 132.0000 0000000   0.0000  42.0000 15.08755970    15
CTC2_L_00144013-01
1 25785U 22700FR  26037.47791667  .00000000  00000+0  00000-0 0  9992
2 25785  70.0000 144.0000 0000000   0.0000 144.0000 15.08755970    12
CTC2_L_00144013-02
1 25786U 24129LB  26037.47791667  .00000000  00000+0  00000-0 0  9990
2 25786  70.0000 144.0000 0000000   0.0000 234.0000 15.08755970    13
CTC2_L_00144013-03
1 25787U 22362VI  26037.47791667  .00000000  00000+0  00000-0 0  9998
2 25787  70.0000 144.0000 0000000   0.0000 324.0000 15.08755970    14
CTC2_L_00144013-04
1 25788U 25945TM  26037.47791667  .00000000  00000+0  00000-0 0  9999
2 25788  70.0000 144.0000 0000000   0.0000  54.0000 15.08755970    15
CTC2_L_00144014-01
1 25789U 22047RK  26037.47791667  .00000000  00000+0  00000-0 0  9990
2 25789  70.0000 156.0000 0000000   0.0000 156.0000 15.08755970    12
CTC2_L_00144014-02
1 25790U 26666RH  26037.47791667  .00000000  00000+0  00000-0 0  9993
2 25790  70.0000 156.0000 0000000   0.0000 246.0000 15.08755970    14
CTC2_L_00144014-03
1 25791U 24975LW  26037.47791667  .00000000  00000+0  00000-0 0  9995
2 25791  70.0000 156.0000 0000000   0.0000 336.0000 15.08755970    15
CTC2_L_00144014-04
1 25792U 22284DT  26037.47791667  .00000000  00000+0  00000-0 0  9997
2 25792  70.0000 156.0000 0000000   0.0000  66.0000 15.08755970    16
CTC2_L_00144015-01
1 25793U 26905BQ  26037.47791667  .00000000  00000+0  00000-0 0  9992
2 25793  70.0000 168.0000 0000000   0.0000 168.0000 15.08755970    13
CTC2_L_00144015-02
1 25794U 23928XB  26037.47791667  .00000000  00000+0  00000-0 0  9995
2 25794  70.0000 168.0000 0000000   0.0000 258.0000 15.08755970    14
CTC2_L_00144015-03
1 25795U 26388UB  26037.47791667  .00000000  00000+0  00000-0 0  9999
2 25795  70.0000 168.0000 0000000   0.0000 348.0000 15.08755970    15
CTC2_L_00144015-04
1 25796U 24303RO  26037.47791667  .00000000  00000+0  00000-0 0  9995
2 25796  70.0000 168.0000 0000000   0.0000  78.0000 15.08755970    16
CTC2_L_00144016-01
1 25797U 24025ZA  26037.47791667  .00000000  00000+0  00000-0 0  9997
2 25797  70.0000 180.0000 0000000   0.0000 180.0000 15.08755970    15
CTC2_L_00144016-02
1 25798U 25277K   26037.47791667  .00000000  00000+0  00000-0 0  9998
2 25798  70.0000 180.0000 0000000   0.0000 270.0000 15.08755970    16
